[{"OBJECT_NAME":"STARLINK-36446","OBJECT_ID":"2026-005J","EPOCH":"2026-03-09T22:00:01.999584","MEAN_MOTION":15.27548085,"ECCENTRICITY":0.00014787,"INCLINATION":43.0009,"RA_OF_ASC_NODE":236.6879,"ARG_OF_PERICENTER":270.1245,"MEAN_ANOMALY":9.9351,"EPHEMERIS_TYPE":0,"CLASSIFICATION_TYPE":"U","NORAD_CAT_ID":67412,"ELEMENT_SET_NO":999,"REV_AT_EPOCH":590,"BSTAR":0.002678876,"MEAN_MOTION_DOT":0.00074126,"MEAN_MOTION_DDOT":0},{"OBJECT_NAME":"FREGAT DEB","OBJECT_ID":"2011-037LS","EPOCH":"2026-03-09T08:54:22.917312","MEAN_MOTION":11.92158719,"ECCENTRICITY":0.15355515,"INCLINATION":51.4914,"RA_OF_ASC_NODE":189.2565,"ARG_OF_PERICENTER":293.3488,"MEAN_ANOMALY":51.3308,"EPHEMERIS_TYPE":0,"CLASSIFICATION_TYPE":"U","NORAD_CAT_ID":46411,"ELEMENT_SET_NO":999,"REV_AT_EPOCH":23768,"BSTAR":0.0033127922,"MEAN_MOTION_DOT":0.00011599,"MEAN_MOTION_DDOT":0}]
